STARLINK-36931          
1 68000U 26039Q   26066.16670139 -.01684657  79861-3 -45089-2 0  9998
2 68000  42.9973  70.4390 0001698 268.0149 135.1329 15.93661458  2472
STARLINK-36903          
1 68001U 26039R   26066.16670139 -.01677967  79382-3 -44592-2 0  9991
2 68001  42.9975  70.4323 0001731 270.7520 135.0223 15.93794294  2479
STARLINK-36898          
1 68002U 26039S   26066.16670139 -.01671736  79055-3 -43780-2 0  9995
2 68002  42.9974  70.4194 0001751 273.1044 137.6312 15.94068440  2470
STARLINK-36862          
1 68003U 26039T   26066.16670139 -.01666833  78845-3 -43014-2 0  9994
2 68003  42.9974  70.4077 0001740 272.3551 143.0236 15.94343560  2478
STARLINK-36888          
1 68004U 26039U   26066.16670139 -.01672489  79011-3 -44125-2 0  9999
2 68004  42.9975  70.4263 0001703 273.7298 134.4530 15.93930182  2471
STARLINK-36910          
1 68005U 26039V   26066.16670139 -.01677230  79647-3 -43600-2 0  9991
2 68005  42.9973  70.4133 0001737 274.5128 138.6738 15.94208008  2476
STARLINK-36889          
1 68006U 26039W   26066.16670139 -.01652054  77662-3 -42330-2 0  9993
2 68006  42.9974  70.4014 0001712 276.7578 140.9208 15.94474344  2478
STARLINK-36592          
1 68007U 26039X   26066.16670139 -.01702601  82241-3 -43264-2 0  9994
2 68007  42.9972  70.3962 0001694 275.0956 144.8636 15.94636733  2479
STARLINK-36911          
1 68008U 26039Y   26066.16670139 -.01648388  77556-3 -41625-2 0  9998
2 68008  42.9974  70.3901 0001791 273.1866 149.1847 15.94745269  2479
STARLINK-36956          
1 68009U 26039Z   26066.16670139 -.01645000  77367-3 -41240-2 0  9990
2 68009  42.9972  70.3841 0001626 271.7765 152.8923 15.94879699  2471
STARLINK-36953          
1 68010U 26039AA  26066.16670139 -.01657204  78646-3 -40943-2 0  9991
2 68010  42.9972  70.3713 0001716 273.2118 156.4355 15.95152388  2479
STARLINK-36991          
1 68011U 26039AB  26066.16670139 -.01655294  78583-3 -40609-2 0  9998
2 68011  42.9971  70.3652 0001669 272.8863 159.2063 15.95282454  2475
STARLINK-36936          
1 68012U 26039AC  26066.16670139 -.01670985  80189-3 -40393-2 0  9998
2 68012  42.9971  70.3526 0001633 267.7037 169.1788 15.95557478  2478
STARLINK-36967          
1 68013U 26039AD  26066.16670139 -.01644815  77455-3 -40941-2 0  9993
2 68013  42.9970  70.3774 0001698 272.5073 154.5807 15.95012519  2470
STARLINK-36985          
1 68014U 26039AE  26066.16670139 -.01652263  78424-3 -40242-2 0  9991
2 68014  42.9971  70.3592 0001644 275.7122 158.6985 15.95416158  2470
STARLINK-36335          
1 68015U 26040A   26066.16670139 -.00781116  23306-3 -86368-3 0  9992
2 68015  97.2836  14.0864 0000980  91.8677 195.9051 16.09626784  1960
